USA 271                 
1 41745U 16052B   26086.85647756 -.00000370  00000+0  00000+0 0  9994
2 41745   3.9613  78.2783 0007657 148.2417  32.3797  1.00254455 27109
